     3.02           N: GNSS NAV DATA    E: GALILEO NAV DATA RINEX VERSION / TYPE
NetR9 5.43          SMO                 20210518 050407 UTC PGM / RUN BY / DATE
GAL     .4175D+02   .1172D+00   .1053D-01   .0000D+00       IONOSPHERIC CORR
GAUT   .9313225746D-09  .000000000D+00 172800 2158          TIME SYSTEM CORR
GPGA   .3055902198D-08 -.222044605D-14 172800 2158          TIME SYSTEM CORR
    18    18  2185     7                                    LEAP SECONDS
                                                            END OF HEADER
E21 2021 05 18 04 40 00 -.665523635689D-03 -.220268248086D-11  .000000000000D+00
      .600000000000D+02  .505000000000D+02  .277547275244D-08 -.183075225544D+00
      .238791108131D-05  .888926442713D-04  .874325633049D-05  .544061103249D+04
      .189600000000D+06 -.707805156708D-07  .675892755978D+00 -.875443220139D-07
      .977902671309D+00  .163031250000D+03  .156115484085D+01 -.528736309704D-08
     -.532522181686D-09  .258000000000D+03  .215800000000D+04
      .312000000000D+01  .000000000000D+00  .256113708019D-08  .000000000000D+00
      .190320000000D+06
E21 2021 05 18 04 40 00 -.665524043143D-03 -.220268248086D-11  .000000000000D+00
      .600000000000D+02  .505000000000D+02  .277547275244D-08 -.183075225544D+00
      .238791108131D-05  .888926442713D-04  .874325633049D-05  .544061103249D+04
      .189600000000D+06 -.707805156708D-07  .675892755978D+00 -.875443220139D-07
      .977902671309D+00  .163031250000D+03  .156115484085D+01 -.528736309704D-08
     -.532522181686D-09  .513000000000D+03  .215800000000D+04
      .312000000000D+01  .000000000000D+00  .256113708019D-08  .256113708019D-08
      .190285000000D+06
E21 2021 05 18 04 40 00 -.665524043143D-03 -.220268248086D-11  .000000000000D+00
      .600000000000D+02  .505000000000D+02  .277547275244D-08 -.183075225544D+00
      .238791108131D-05  .888926442713D-04  .874325633049D-05  .544061103249D+04
      .189600000000D+06 -.707805156708D-07  .675892755978D+00 -.875443220139D-07
      .977902671309D+00  .163031250000D+03  .156115484085D+01 -.528736309704D-08
     -.532522181686D-09  .516000000000D+03  .215800000000D+04
      .312000000000D+01  .000000000000D+00  .256113708019D-08  .256113708019D-08
      .190264000000D+06
E27 2021 05 18 03 30 00 -.347165623680D-04 -.822808488010D-11  .000000000000D+00
      .530000000000D+02  .526875000000D+02  .274011413675D-08  .188324455761D+01
      .242888927460D-05  .112562905997D-03  .894814729691D-05  .544060979843D+04
      .185400000000D+06 -.353902578354D-07  .675914244781D+00 -.134110450745D-06
      .977877191664D+00  .161093750000D+03 -.234089446491D+00 -.526593363299D-08
     -.547879964257D-09  .258000000000D+03  .215800000000D+04
      .312000000000D+01  .000000000000D+00  .209547579288D-08  .000000000000D+00
      .186120000000D+06
E27 2021 05 18 03 30 00 -.347168534063D-04 -.822808488010D-11  .000000000000D+00
      .530000000000D+02  .526875000000D+02  .274011413675D-08  .188324455761D+01
      .242888927460D-05  .112562905997D-03  .894814729691D-05  .544060979843D+04
      .185400000000D+06 -.353902578354D-07  .675914244781D+00 -.134110450745D-06
      .977877191664D+00  .161093750000D+03 -.234089446491D+00 -.526593363299D-08
     -.547879964257D-09  .513000000000D+03  .215800000000D+04
      .312000000000D+01  .000000000000D+00  .209547579288D-08  .232830643654D-08
      .186085000000D+06
E27 2021 05 18 03 30 00 -.347168534063D-04 -.822808488010D-11  .000000000000D+00
      .530000000000D+02  .526875000000D+02  .274011413675D-08  .188324455761D+01
      .242888927460D-05  .112562905997D-03  .894814729691D-05  .544060979843D+04
      .185400000000D+06 -.353902578354D-07  .675914244781D+00 -.134110450745D-06
      .977877191664D+00  .161093750000D+03 -.234089446491D+00 -.526593363299D-08
     -.547879964257D-09  .516000000000D+03  .215800000000D+04
      .312000000000D+01  .000000000000D+00  .209547579288D-08  .232830643654D-08
      .186064000000D+06
E27 2021 05 18 04 40 00 -.347509630956D-04 -.821387402539D-11  .000000000000D+00
      .600000000000D+02  .559062500000D+02  .283261798991D-08  .240530987712D+01
      .238232314587D-05  .112943002023D-03  .893697142601D-05  .544060898972D+04
      .189600000000D+06  .130385160446D-07  .675892672591D+00 -.353902578354D-07
      .977874690075D+00  .160000000000D+03 -.235458421823D+00 -.533486507569D-08
     -.593596154234D-09  .258000000000D+03  .215800000000D+04
      .312000000000D+01  .000000000000D+00  .209547579288D-08  .000000000000D+00
      .190320000000D+06
E27 2021 05 18 04 40 00 -.347513123415D-04 -.822808488010D-11  .000000000000D+00
      .600000000000D+02  .559062500000D+02  .283261798991D-08  .240530987712D+01
      .238232314587D-05  .112943002023D-03  .893697142601D-05  .544060898972D+04
      .189600000000D+06  .130385160446D-07  .675892672591D+00 -.353902578354D-07
      .977874690075D+00  .160000000000D+03 -.235458421823D+00 -.533486507569D-08
     -.593596154234D-09  .513000000000D+03  .215800000000D+04
      .312000000000D+01  .000000000000D+00  .209547579288D-08  .232830643654D-08
      .190315000000D+06
E27 2021 05 18 04 40 00 -.347513123415D-04 -.822808488010D-11  .000000000000D+00
      .600000000000D+02  .559062500000D+02  .283261798991D-08  .240530987712D+01
      .238232314587D-05  .112943002023D-03  .893697142601D-05  .544060898972D+04
      .189600000000D+06  .130385160446D-07  .675892672591D+00 -.353902578354D-07
      .977874690075D+00  .160000000000D+03 -.235458421823D+00 -.533486507569D-08
     -.593596154234D-09  .516000000000D+03  .215800000000D+04
      .312000000000D+01  .000000000000D+00  .209547579288D-08  .232830643654D-08
      .190294000000D+06
E30 2021 05 18 03 10 00  .293681380572D-02 -.306954461848D-10  .000000000000D+00
      .510000000000D+02  .600000000000D+02  .285833334677D-08  .136991581559D+01
      .258535146713D-05  .357198412530D-03  .895187258720D-05  .544059838104D+04
      .184200000000D+06  .428408384323D-07  .680637988241D+00 -.428408384323D-07
      .975825848435D+00  .157812500000D+03  .952766553934D+00 -.536165190575D-08
     -.556808907612D-09  .513000000000D+03  .215800000000D+04
      .312000000000D+01  .000000000000D+00  .209547579288D-08  .209547579288D-08
      .184885000000D+06
E30 2021 05 18 03 10 00  .293681380572D-02 -.306954461848D-10  .000000000000D+00
      .510000000000D+02  .600000000000D+02  .285833334677D-08  .136991581559D+01
      .258535146713D-05  .357198412530D-03  .895187258720D-05  .544059838104D+04
      .184200000000D+06  .428408384323D-07  .680637988241D+00 -.428408384323D-07
      .975825848435D+00  .157812500000D+03  .952766553934D+00 -.536165190575D-08
     -.556808907612D-09  .516000000000D+03  .215800000000D+04
      .312000000000D+01  .000000000000D+00  .209547579288D-08  .209547579288D-08
      .184864000000D+06
E30 2021 05 18 03 10 00  .293681432959D-02 -.306812353301D-10  .000000000000D+00
      .510000000000D+02  .600000000000D+02  .285833334677D-08  .136991581559D+01
      .258535146713D-05  .357198412530D-03  .895187258720D-05  .544059838104D+04
      .184200000000D+06  .428408384323D-07  .680637988241D+00 -.428408384323D-07
      .975825848435D+00  .157812500000D+03  .952766553934D+00 -.536165190575D-08
     -.556808907612D-09  .258000000000D+03  .215800000000D+04
      .312000000000D+01  .000000000000D+00  .209547579288D-08  .000000000000D+00
      .184920000000D+06
E30 2021 05 18 04 00 00  .293672183761D-02 -.306812353301D-10  .000000000000D+00
      .560000000000D+02  .600625000000D+02  .288369154590D-08  .174106121613D+01
      .257603824139D-05  .356995267794D-03  .868923962116D-05  .544059908104D+04
      .187200000000D+06  .353902578354D-07  .680621921012D+00 -.447034835815D-07
      .975824148524D+00  .160406250000D+03  .953550343016D+00 -.536736642950D-08
     -.556451749877D-09  .513000000000D+03  .215800000000D+04
      .312000000000D+01  .000000000000D+00  .209547579288D-08  .209547579288D-08
      .187975000000D+06
E30 2021 05 18 04 00 00  .293672183761D-02 -.306812353301D-10  .000000000000D+00
      .560000000000D+02  .600625000000D+02  .288369154590D-08  .174106121613D+01
      .257603824139D-05  .356995267794D-03  .868923962116D-05  .544059908104D+04
      .187200000000D+06  .353902578354D-07  .680621921012D+00 -.447034835815D-07
      .975824148524D+00  .160406250000D+03  .953550343016D+00 -.536736642950D-08
     -.556451749877D-09  .516000000000D+03  .215800000000D+04
      .312000000000D+01  .000000000000D+00  .209547579288D-08  .209547579288D-08
      .187954000000D+06
E30 2021 05 18 04 00 00  .293672236148D-02 -.306812353301D-10  .000000000000D+00
      .560000000000D+02  .600625000000D+02  .288369154590D-08  .174106121613D+01
      .257603824139D-05  .356995267794D-03  .868923962116D-05  .544059908104D+04
      .187200000000D+06  .353902578354D-07  .680621921012D+00 -.447034835815D-07
      .975824148524D+00  .160406250000D+03  .953550343016D+00 -.536736642950D-08
     -.556451749877D-09  .258000000000D+03  .215800000000D+04
      .312000000000D+01  .000000000000D+00  .209547579288D-08  .000000000000D+00
      .187970000000D+06
E30 2021 05 18 04 10 00  .293670344399D-02 -.306954461848D-10  .000000000000D+00
      .570000000000D+02  .604687500000D+02  .288690596551D-08  .181514563763D+01
      .260584056377D-05  .356885953806D-03  .860728323460D-05  .544059938622D+04
      .187800000000D+06  .353902578354D-07  .680618705518D+00 -.465661287308D-07
      .975823809127D+00  .161531250000D+03  .953851803619D+00 -.536808074497D-08
     -.556451749877D-09  .513000000000D+03  .215800000000D+04
      .312000000000D+01  .000000000000D+00  .209547579288D-08  .209547579288D-08
      .188485000000D+06
